[{"OBJECT_NAME":"STARLINK-5795","OBJECT_ID":"2023-042BF","EPOCH":"2026-03-09T22:00:01.999584","MEAN_MOTION":15.12176175,"ECCENTRICITY":7.557e-5,"INCLINATION":43.0011,"RA_OF_ASC_NODE":28.4013,"ARG_OF_PERICENTER":288.0234,"MEAN_ANOMALY":271.708,"EPHEMERIS_TYPE":0,"CLASSIFICATION_TYPE":"U","NORAD_CAT_ID":56039,"ELEMENT_SET_NO":999,"REV_AT_EPOCH":557,"BSTAR":0.0026821947,"MEAN_MOTION_DOT":0.00047185,"MEAN_MOTION_DDOT":0},{"OBJECT_NAME":"OBJECT C","OBJECT_ID":"2025-013C","EPOCH":"2026-03-09T23:45:12.010176","MEAN_MOTION":15.10546453,"ECCENTRICITY":0.00141064,"INCLINATION":97.6424,"RA_OF_ASC_NODE":238.1264,"ARG_OF_PERICENTER":358.7826,"MEAN_ANOMALY":1.3366,"EPHEMERIS_TYPE":0,"CLASSIFICATION_TYPE":"U","NORAD_CAT_ID":62731,"ELEMENT_SET_NO":999,"REV_AT_EPOCH":6235,"BSTAR":0.00030324361,"MEAN_MOTION_DOT":4.947e-5,"MEAN_MOTION_DDOT":0}]
